[{
    "OBJECT_NAME": "2020-058B",
    "OBJECT_ID": "2020-058B",
    "EPOCH": "2020-09-09T05:33:37.248768",
    "MEAN_MOTION": 15.24056233,
    "ECCENTRICITY": 0.0015554,
    "INCLINATION": 97.5022,
    "RA_OF_ASC_NODE": 300.7506,
    "ARG_OF_PERICENTER": 205.6279,
    "MEAN_ANOMALY": 239.1018,
    "EPHEMERIS_TYPE": 0,
    "CLASSIFICATION_TYPE": "U",
    "NORAD_CAT_ID": 46233,
    "ELEMENT_SET_NO": 999,
    "REV_AT_EPOCH": 259,
    "BSTAR": 4.9108e-5,
    "MEAN_MOTION_DOT": 1.121e-5,
    "MEAN_MOTION_DDOT": 0
},{
    "OBJECT_NAME": "2020-058C",
    "OBJECT_ID": "2020-058C",
    "EPOCH": "2020-09-09T13:31:26.044896",
    "MEAN_MOTION": 15.24083685,
    "ECCENTRICITY": 0.0015582,
    "INCLINATION": 97.5019,
    "RA_OF_ASC_NODE": 301.0833,
    "ARG_OF_PERICENTER": 204.188,
    "MEAN_ANOMALY": 260.1588,
    "EPHEMERIS_TYPE": 0,
    "CLASSIFICATION_TYPE": "U",
    "NORAD_CAT_ID": 46234,
    "ELEMENT_SET_NO": 999,
    "REV_AT_EPOCH": 264,
    "BSTAR": 0.00011738,
    "MEAN_MOTION_DOT": 2.785e-5,
    "MEAN_MOTION_DDOT": 0
},{
    "OBJECT_NAME": "SKYSAT-C19",
    "OBJECT_ID": "2020-057BS",
    "EPOCH": "2020-09-09T05:59:27.657888",
    "MEAN_MOTION": 15.75841101,
    "ECCENTRICITY": 0.0016585,
    "INCLINATION": 53.0003,
    "RA_OF_ASC_NODE": 332.0171,
    "ARG_OF_PERICENTER": 70.548,
    "MEAN_ANOMALY": 289.7328,
    "EPHEMERIS_TYPE": 0,
    "CLASSIFICATION_TYPE": "U",
    "NORAD_CAT_ID": 46235,
    "ELEMENT_SET_NO": 999,
    "REV_AT_EPOCH": 307,
    "BSTAR": 5.8186e-5,
    "MEAN_MOTION_DOT": 8.574e-5,
    "MEAN_MOTION_DDOT": 0
},{
    "OBJECT_NAME": "FALCON 9 DEB",
    "OBJECT_ID": "2020-057BT",
    "EPOCH": "2020-09-09T04:43:52.631616",
    "MEAN_MOTION": 16.10072531,
    "ECCENTRICITY": 0.007022,
    "INCLINATION": 52.9978,
    "RA_OF_ASC_NODE": 330.156,
    "ARG_OF_PERICENTER": 122.028,
    "MEAN_ANOMALY": 238.76,
    "EPHEMERIS_TYPE": 0,
    "CLASSIFICATION_TYPE": "U",
    "NORAD_CAT_ID": 46236,
    "ELEMENT_SET_NO": 999,
    "REV_AT_EPOCH": 347,
    "BSTAR": 0.00032101,
    "MEAN_MOTION_DOT": 0.00460922,
    "MEAN_MOTION_DDOT": 1.159e-5
},{
    "OBJECT_NAME": "SAOCOM 1B",
    "OBJECT_ID": "2020-059A",
    "EPOCH": "2020-09-09T05:41:59.828928",
    "MEAN_MOTION": 14.863932,
    "ECCENTRICITY": 0.0004501,
    "INCLINATION": 97.8803,
    "RA_OF_ASC_NODE": 76.9884,
    "ARG_OF_PERICENTER": 138.2461,
    "MEAN_ANOMALY": 222.0642,
    "EPHEMERIS_TYPE": 0,
    "CLASSIFICATION_TYPE": "U",
    "NORAD_CAT_ID": 46265,
    "ELEMENT_SET_NO": 999,
    "REV_AT_EPOCH": 137,
    "BSTAR": 0.0054017,
    "MEAN_MOTION_DOT": 0.00047927,
    "MEAN_MOTION_DDOT": 0
},{
    "OBJECT_NAME": "GNOMES-1",
    "OBJECT_ID": "2020-059B",
    "EPOCH": "2020-09-09T00:38:51.493632",
    "MEAN_MOTION": 14.87885258,
    "ECCENTRICITY": 0.0006554,
    "INCLINATION": 97.8851,
    "RA_OF_ASC_NODE": 76.8064,
    "ARG_OF_PERICENTER": 110.4958,
    "MEAN_ANOMALY": 249.7031,
    "EPHEMERIS_TYPE": 0,
    "CLASSIFICATION_TYPE": "U",
    "NORAD_CAT_ID": 46266,
    "ELEMENT_SET_NO": 999,
    "REV_AT_EPOCH": 134,
    "BSTAR": 5.2437e-5,
    "MEAN_MOTION_DOT": 4.25e-6,
    "MEAN_MOTION_DDOT": 0
},{
    "OBJECT_NAME": "TYVAK-0172",
    "OBJECT_ID": "2020-059C",
    "EPOCH": "2020-09-09T00:36:25.104384",
    "MEAN_MOTION": 14.88166674,
    "ECCENTRICITY": 0.0007636,
    "INCLINATION": 97.8729,
    "RA_OF_ASC_NODE": 76.7954,
    "ARG_OF_PERICENTER": 115.8953,
    "MEAN_ANOMALY": 244.3119,
    "EPHEMERIS_TYPE": 0,
    "CLASSIFICATION_TYPE": "U",
    "NORAD_CAT_ID": 46267,
    "ELEMENT_SET_NO": 999,
    "REV_AT_EPOCH": 133,
    "BSTAR": 6.6658e-5,
    "MEAN_MOTION_DOT": 5.59e-6,
    "MEAN_MOTION_DDOT": 0
},{
    "OBJECT_NAME": "RLFL14",
    "OBJECT_ID": "2020-060A",
    "EPOCH": "2020-09-09T11:36:28.968768",
    "MEAN_MOTION": 15.09544892,
    "ECCENTRICITY": 0.0013223,
    "INCLINATION": 45.1011,
    "RA_OF_ASC_NODE": 281.54,
    "ARG_OF_PERICENTER": 318.6273,
    "MEAN_ANOMALY": 41.3601,
    "EPHEMERIS_TYPE": 0,
    "CLASSIFICATION_TYPE": "U",
    "NORAD_CAT_ID": 46268,
    "ELEMENT_SET_NO": 999,
    "REV_AT_EPOCH": 141,
    "BSTAR": 5.0344e-6,
    "MEAN_MOTION_DOT": -1.71e-6,
    "MEAN_MOTION_DDOT": 0
},{
    "OBJECT_NAME": "CAPELLA-2",
    "OBJECT_ID": "2020-060B",
    "EPOCH": "2020-09-09T05:17:50.088768",
    "MEAN_MOTION": 15.09255259,
    "ECCENTRICITY": 0.0011149,
    "INCLINATION": 45.1027,
    "RA_OF_ASC_NODE": 282.9588,
    "ARG_OF_PERICENTER": 319.501,
    "MEAN_ANOMALY": 40.504,
    "EPHEMERIS_TYPE": 0,
    "CLASSIFICATION_TYPE": "U",
    "NORAD_CAT_ID": 46269,
    "ELEMENT_SET_NO": 999,
    "REV_AT_EPOCH": 137,
    "BSTAR": 3.2692e-5,
    "MEAN_MOTION_DOT": 2.78e-6,
    "MEAN_MOTION_DDOT": 0
},{
    "OBJECT_NAME": "ELECTRON R\/B",
    "OBJECT_ID": "2020-060C",
    "EPOCH": "2020-09-09T11:12:56.388384",
    "MEAN_MOTION": 15.85313759,
    "ECCENTRICITY": 0.0211465,
    "INCLINATION": 45.0958,
    "RA_OF_ASC_NODE": 276.312,
    "ARG_OF_PERICENTER": 312.9485,
    "MEAN_ANOMALY": 45.3853,
    "EPHEMERIS_TYPE": 0,
    "CLASSIFICATION_TYPE": "U",
    "NORAD_CAT_ID": 46270,
    "ELEMENT_SET_NO": 999,
    "REV_AT_EPOCH": 147,
    "BSTAR": 0.00060327,
    "MEAN_MOTION_DOT": 0.01102823,
    "MEAN_MOTION_DDOT": 9.2618e-6
},{
    "OBJECT_NAME": "NUSAT-6 (HYPATIA)",
    "OBJECT_ID": "2020-061A",
    "EPOCH": "2020-09-09T05:17:35.723904",
    "MEAN_MOTION": 15.15061182,
    "ECCENTRICITY": 0.0006114,
    "INCLINATION": 97.4681,
    "RA_OF_ASC_NODE": 326.2049,
    "ARG_OF_PERICENTER": 197.0317,
    "MEAN_ANOMALY": 163.0711,
    "EPHEMERIS_TYPE": 0,
    "CLASSIFICATION_TYPE": "U",
    "NORAD_CAT_ID": 46272,
    "ELEMENT_SET_NO": 999,
    "REV_AT_EPOCH": 92,
    "BSTAR": 2.2072e-5,
    "MEAN_MOTION_DOT": 3.48e-6,
    "MEAN_MOTION_DDOT": 0
},{
    "OBJECT_NAME": "ESAIL",
    "OBJECT_ID": "2020-061B",
    "EPOCH": "2020-09-09T05:17:01.858560",
    "MEAN_MOTION": 15.15158091,
    "ECCENTRICITY": 0.0005668,
    "INCLINATION": 97.4681,
    "RA_OF_ASC_NODE": 326.2055,
    "ARG_OF_PERICENTER": 197.4739,
    "MEAN_ANOMALY": 162.6299,
    "EPHEMERIS_TYPE": 0,
    "CLASSIFICATION_TYPE": "U",
    "NORAD_CAT_ID": 46273,
    "ELEMENT_SET_NO": 999,
    "REV_AT_EPOCH": 92,
    "BSTAR": 1.6656e-5,
    "MEAN_MOTION_DOT": 2.47e-6,
    "MEAN_MOTION_DDOT": 0
},{
    "OBJECT_NAME": "ION-MK01",
    "OBJECT_ID": "2020-061C",
    "EPOCH": "2020-09-09T05:16:37.573248",
    "MEAN_MOTION": 15.15227936,
    "ECCENTRICITY": 0.0005312,
    "INCLINATION": 97.4682,
    "RA_OF_ASC_NODE": 326.206,
    "ARG_OF_PERICENTER": 197.3017,
    "MEAN_ANOMALY": 162.8036,
    "EPHEMERIS_TYPE": 0,
    "CLASSIFICATION_TYPE": "U",
    "NORAD_CAT_ID": 46274,
    "ELEMENT_SET_NO": 999,
    "REV_AT_EPOCH": 92,
    "BSTAR": 1.5474e-5,
    "MEAN_MOTION_DOT": 2.25e-6,
    "MEAN_MOTION_DDOT": 0
},{
    "OBJECT_NAME": "2020-061D",
    "OBJECT_ID": "2020-061D",
    "EPOCH": "2020-09-09T05:12:24.582816",
    "MEAN_MOTION": 15.15957884,
    "ECCENTRICITY": 7.64e-5,
    "INCLINATION": 97.4642,
    "RA_OF_ASC_NODE": 326.2068,
    "ARG_OF_PERICENTER": 135.5456,
    "MEAN_ANOMALY": 224.5838,
    "EPHEMERIS_TYPE": 0,
    "CLASSIFICATION_TYPE": "U",
    "NORAD_CAT_ID": 46275,
    "ELEMENT_SET_NO": 999,
    "REV_AT_EPOCH": 92,
    "BSTAR": 1.2413e-5,
    "MEAN_MOTION_DOT": 1.73e-6,
    "MEAN_MOTION_DDOT": 0
}]
